{"_default": { "330": {"norad_id": "53468", "name": "STARLINK-4400", "tle1": "1 53468U 22099D   26161.59903149  .00002397  00000-0  16998-3 0  9991", "tle2": "2 53468  97.3764 280.9273 0001541 145.4132 214.7196 15.05661271209955", "object_type": "PAYLOAD", "criticality_score": 8.0, "last_updated": "2026-06-11T12:15:23.970987+00:00", "maneuver_count": 0}, "331": {"norad_id": "53676", "name": "STARLINK-4621", "tle1": "1 53676U 22105AE  26161.60179827 -.00001218  00000-0 -80374-4 0  9993", "tle2": "2 53676  97.3781  40.9422 0002771  70.4978 289.6548 15.05661823207218", "object_type": "PAYLOAD", "criticality_score": 8.0, "last_updated": "2026-06-11T12:15:23.970987+00:00", "maneuver_count": 0}, "333": {"norad_id": "53807", "name": "BLUEWALKER 3", "tle1": "1 53807U 22111AL  26161.03268586  .00006029  00000-0  16814-3 0  9994", "tle2": "2 53807  53.2293  67.5573 0006861 140.7558 219.3945 15.38180975209105", "object_type": "PAYLOAD", "criticality_score": 7.0, "last_updated": "2026-06-11T12:15:23.970987+00:00", "maneuver_count": 0}, "334": {"norad_id": "54023", "name": "OTB-3-GAZELLE", "tle1": "1 54023U 22127A   26161.54031346  .00000133  00000-0  53080-4 0  9997", "tle2": "2 54023  98.3942 153.3460 0012529 203.6473 156.4142 14.42672047193404", "object_type": "PAYLOAD", "criticality_score": 7.0, "last_updated": "2026-06-11T12:15:23.970987+00:00", "maneuver_count": 0}, "339": {"norad_id": "53754", "name": "SHERPA-LTC2", "tle1": "1 53754U 22107BG  26161.52189475  .00006573  00000-0  33406-3 0  9993", "tle2": "2 53754  53.2356 248.5452 0394571 207.3523 150.6179 14.69632213201561", "object_type": "PAYLOAD", "criticality_score": 7.0, "last_updated": "2026-06-11T12:15:23.970987+00:00", "maneuver_count": 0}, "365": {"norad_id": "54361", "name": "EOS-6", "tle1": "1 54361U 22158A   26161.59356597  .00000224  00000-0  73593-4 0  9991", "tle2": "2 54361  98.3539 259.8753 0001543  55.5533 304.5805 14.46996505186881", "object_type": "PAYLOAD", "criticality_score": 7.0, "last_updated": "2026-06-11T12:15:23.970987+00:00", "maneuver_count": 0}, "370": {"norad_id": "54021", "name": "CENTISPACE-1 S6", "tle1": "1 54021U 22126B   26161.58287890  .00000437  00000-0  12314-3 0  9996", "tle2": "2 54021  54.9988 241.2235 0016239  60.0519 300.2085 14.62283968196034", "object_type": "PAYLOAD", "criticality_score": 7.0, "last_updated": "2026-06-11T12:15:23.970987+00:00", "maneuver_count": 0}, "371": {"norad_id": "53757", "name": "CENTISPACE-1 S3", "tle1": "1 53757U 22108A   26161.57284096  .00000390  00000-0  11660-3 0  9996", "tle2": "2 53757  53.5331  82.6095 0008951 336.5100  23.5465 14.61244110200562", "object_type": "PAYLOAD", "criticality_score": 7.0, "last_updated": "2026-06-11T12:15:23.970987+00:00", "maneuver_count": 0}, "376": {"norad_id": "54227", "name": "MATS", "tle1": "1 54227U 22147A   26161.60115941  .00002912  00000-0  20762-3 0  9993", "tle2": "2 54227  97.6827 163.2267 0011346 214.7319 145.3167 15.05318049196773", "object_type": "PAYLOAD", "criticality_score": 7.0, "last_updated": "2026-06-11T12:15:23.970987+00:00", "maneuver_count": 0}, "380": {"norad_id": "55012", "name": "CONNECTA T1.2", "tle1": "1 55012U 23001D   26161.20061150  .00038568  00000-0  68265-3 0  9990", "tle2": "2 55012  97.3278 231.7696 0006818 123.0964 237.0943 15.50178440191467", "object_type": "PAYLOAD", "criticality_score": 7.0, "last_updated": "2026-06-11T12:15:23.970987+00:00", "maneuver_count": 0}, "381": {"norad_id": "55011", "name": "BRO-8", "tle1": "1 55011U 23001C   26161.65214098  .00029095  00000-0  54430-3 0  9993", "tle2": "2 55011  97.3220 226.7434 0006884 141.5136 218.6607 15.48651696191194", "object_type": "PAYLOAD", "criticality_score": 7.0, "last_updated": "2026-06-11T12:15:23.970987+00:00", "maneuver_count": 0}, "383": {"norad_id": "55009", "name": "OBJECT A", "tle1": "1 55009U 23001A   26161.61838154  .00013193  00000-0  30667-3 0  9999", "tle2": "2 55009  97.3177 226.0563 0007004 130.8112 229.3744 15.42434402191210", "object_type": "PAYLOAD", "criticality_score": 7.0, "last_updated": "2026-06-11T12:15:23.970987+00:00", "maneuver_count": 0}, "404": {"norad_id": "54687", "name": "OBJECT F", "tle1": "1 54687U 22167F   26161.10345734  .00213712  18731-4  73203-3 0  9999", "tle2": "2 54687  97.6112 348.1595 0001046 184.5927 175.5336 15.89700177195707", "object_type": "PAYLOAD", "criticality_score": 7.0, "last_updated": "2026-06-11T12:15:23.970987+00:00", "maneuver_count": 0}, "414": {"norad_id": "54035", "name": "HJ-2E", "tle1": "1 54035U 22132A   26161.64589354  .00007030  00000-0  30704-3 0  9994", "tle2": "2 54035  97.3798 166.1404 0021379  37.3543 322.9175 15.22215798203423", "object_type": "PAYLOAD", "criticality_score": 7.0, "last_updated": "2026-06-11T12:15:23.970987+00:00", "maneuver_count": 0}, "423": {"norad_id": "54109", "name": "COSMOS 2561", "tle1": "1 54109U 22137A   26161.51943693  .00012746  00000-0  21633-3 0  9998", "tle2": "2 54109  96.9186 220.7704 0011396  57.9604 302.2755 15.51532978205314", "object_type": "PAYLOAD", "criticality_score": 7.0, "last_updated": "2026-06-11T12:15:23.970987+00:00", "maneuver_count": 0}, "429": {"norad_id": "54153", "name": "SKIF-D", "tle1": "1 54153U 22139D   26160.26236661  .00000013  00000-0  00000-0 0  9996", "tle2": "2 54153  89.9519  96.6699 0007385 202.8670 157.1456  5.00429725 63714", "object_type": "PAYLOAD", "criticality_score": 7.0, "last_updated": "2026-06-11T12:15:23.970987+00:00", "maneuver_count": 0}, "442": {"norad_id": "54020", "name": "CENTISPACE-1 S5", "tle1": "1 54020U 22126A   26161.59296571  .00000610  00000-0  15483-3 0  9995", "tle2": "2 54020  54.9984 239.3486 0014388  60.2585 299.9839 14.63004864196075", "object_type": "PAYLOAD", "criticality_score": 7.0, "last_updated": "2026-06-11T12:15:23.970987+00:00", "maneuver_count": 0}, "450": {"norad_id": "54695", "name": "OBJECT P", "tle1": "1 54695U 22167P   26161.61608573  .00010658  00000-0  31528-3 0  9991", "tle2": "2 54695  97.6873 330.8520 0007412 134.5077 225.6772 15.35078556194384", "object_type": "PAYLOAD", "criticality_score": 7.0, "last_updated": "2026-06-11T12:15:23.970987+00:00", "maneuver_count": 0}, "451": {"norad_id": "54254", "name": "OBJECT D", "tle1": "1 54254U 22155D   26161.63124802  .00272081  30777-4  73002-3 0  9990", "tle2": "2 54254  97.6102 313.8851 0004121 265.4593  94.6211 15.94416466199253", "object_type": "PAYLOAD", "criticality_score": 7.0, "last_updated": "2026-06-11T12:15:23.970987+00:00", "maneuver_count": 0}, "452": {"norad_id": "53452", "name": "OBJECT J", "tle1": "1 53452U 22098J   26161.62950516  .00096691  00000-0  69511-3 0  9996", "tle2": "2 53452  97.5504 292.2572 0001553 297.4885  62.6220 15.73327132213768", "object_type": "PAYLOAD", "criticality_score": 7.0, "last_updated": "2026-06-11T12:15:23.970987+00:00", "maneuver_count": 0}, "454": {"norad_id": "53453", "name": "OBJECT K", "tle1": "1 53453U 22098K   26161.61130177  .00082159  00000-0  64479-3 0  9991", "tle2": "2 53453  97.5573 292.7803 0001429 239.4828 120.6293 15.71290253213724", "object_type": "PAYLOAD", "criticality_score": 7.0, "last_updated": "2026-06-11T12:15:23.970987+00:00", "maneuver_count": 0}, "458": {"norad_id": "54689", "name": "OBJECT H", "tle1": "1 54689U 22167H   26161.61511090  .00010140  00000-0  30747-3 0  9999", "tle2": "2 54689  97.6939 331.4752 0006113 128.5921 231.5869 15.34318115194359", "object_type": "PAYLOAD", "criticality_score": 7.0, "last_updated": "2026-06-11T12:15:23.970987+00:00", "maneuver_count": 0}, "459": {"norad_id": "54685", "name": "OBJECT D", "tle1": "1 54685U 22167D   26161.63598108  .00010526  00000-0  30082-3 0  9992", "tle2": "2 54685  97.6894 332.3519 0003390 130.7374 229.4164 15.36187026194448", "object_type": "PAYLOAD", "criticality_score": 7.0, "last_updated": "2026-06-11T12:15:23.970987+00:00", "maneuver_count": 0}, "460": {"norad_id": "54686", "name": "OBJECT E", "tle1": "1 54686U 22167E   26161.60500329  .00009845  00000-0  30613-3 0  9990", "tle2": "2 54686  97.6857 329.5287 0008165 182.4103 177.7101 15.33512823194313", "object_type": "PAYLOAD", "criticality_score": 7.0, "last_updated": "2026-06-11T12:15:23.970987+00:00", "maneuver_count": 0}, "489": {"norad_id": "53758", "name": "CENTISPACE-1 S4", "tle1": "1 53758U 22108B   26161.56020889  .00000552  00000-0  14707-3 0  9999", "tle2": "2 53758  53.5306  80.2112 0008199 323.9454  36.0968 14.61922880200592", "object_type": "PAYLOAD", "criticality_score": 7.0, "last_updated": "2026-06-11T12:15:23.970987+00:00", "maneuver_count": 0}, "502": {"norad_id": "54029", "name": "ASO-S", "tle1": "1 54029U 22129A   26161.56972031  .00000197  00000-0  59619-4 0  9996", "tle2": "2 54029  98.2747 166.7450 0015654 111.2184 249.0685 14.52058555194465", "object_type": "PAYLOAD", "criticality_score": 7.0, "last_updated": "2026-06-11T12:15:23.970987+00:00", "maneuver_count": 0}, "620": {"norad_id": "54150", "name": "GONETS-M 23", "tle1": "1 54150U 22139A   26161.58152120  .00000039  00000-0  21137-3 0  9991", "tle2": "2 54150  82.5072 352.4005 0020686 234.7245 125.1900 12.42890521164822", "object_type": "PAYLOAD", "criticality_score": 7.0, "last_updated": "2026-06-11T12:15:23.970987+00:00", "maneuver_count": 0}, "621": {"norad_id": "54152", "name": "GONETS-M 25", "tle1": "1 54152U 22139C   26161.62149451  .00000033  00000-0  17025-3 0  9996", "tle2": "2 54152  82.5054 352.1227 0019759 243.8684 116.0363 12.42889796164839", "object_type": "PAYLOAD", "criticality_score": 7.0, "last_updated": "2026-06-11T12:15:23.970987+00:00", "maneuver_count": 0}, "623": {"norad_id": "54151", "name": "GONETS-M 24", "tle1": "1 54151U 22139B   26161.63511779  .00000044  00000-0  24948-3 0  9996", "tle2": "2 54151  82.4983 351.4314 0015835 245.2419 114.7013 12.42891153164837", "object_type": "PAYLOAD", "criticality_score": 7.0, "last_updated": "2026-06-11T12:15:23.970987+00:00", "maneuver_count": 0}, "632": {"norad_id": "53877", "name": "YUNHAI 1-03", "tle1": "1 53877U 22115A   26161.62272980  .00000282  00000-0  11971-3 0  9997", "tle2": "2 53877  98.5532 159.8532 0005967  71.2326 288.9505 14.32713563194573", "object_type": "PAYLOAD", "criticality_score": 7.0, "last_updated": "2026-06-11T12:15:23.970987+00:00", "maneuver_count": 0}}}