OBJECT_NAME,OBJECT_ID,EPOCH,MEAN_MOTION,ECCENTRICITY,INCLINATION,RA_OF_ASC_NODE,ARG_OF_PERICENTER,MEAN_ANOMALY,EPHEMERIS_TYPE,CLASSIFICATION_TYPE,NORAD_CAT_ID,ELEMENT_SET_NO,REV_AT_EPOCH,BSTAR,MEAN_MOTION_DOT,MEAN_MOTION_DDOT
DONGPO 02,2022-098J,2026-06-10T15:06:29.245824,15.73327132,.00015533,97.5504,292.2572,297.4885,62.6220,0,U,53452,999,21376,.69510868E-3,.96691E-3,0
DONGPO 01,2022-098K,2026-06-10T14:40:16.472928,15.71290253,.00014287,97.5573,292.7803,239.4828,120.6293,0,U,53453,999,21372,.64478534E-3,.82159E-3,0
STARLINK-4400,2022-099D,2026-06-10T14:22:36.320736,15.05661271,.00015411,97.3764,280.9273,145.4132,214.7196,0,U,53468,999,20995,.16998173E-3,.2397E-4,0
STARLINK-4621,2022-105AE,2026-06-10T14:26:35.370528,15.05661823,.00027712,97.3781,40.9422,70.4978,289.6548,0,U,53676,999,20721,-.80374442E-4,-.1218E-4,0
SHERPA-LTC2,2022-107BG,2026-06-10T12:31:31.706400,14.69632213,.03945712,53.2356,248.5452,207.3523,150.6179,0,U,53754,999,20156,.33405869E-3,.6573E-4,0
CENTISPACE-1 S3,2022-108A,2026-06-10T13:44:53.458944,14.61244110,.00089506,53.5331,82.6095,336.5100,23.5465,0,U,53757,999,20056,.11659523E-3,.39E-5,0
CENTISPACE-1 S4,2022-108B,2026-06-10T13:26:42.048096,14.61922880,.00081985,53.5306,80.2112,323.9454,36.0968,0,U,53758,999,20059,.14707183E-3,.552E-5,0
BLUEWALKER-3,2022-111AL,2026-06-10T00:47:04.058304,15.38180975,.00068615,53.2293,67.5573,140.7558,219.3945,0,U,53807,999,20910,.16814126E-3,.6029E-4,0
YUNHAI-1 03,2022-115A,2026-06-10T14:56:43.854720,14.32713563,.00059666,98.5532,159.8532,71.2326,288.9505,0,U,53877,999,19457,.11971075E-3,.282E-5,0
CENTISPACE-1 S5,2022-126A,2026-06-10T14:13:52.237344,14.63004864,.00143879,54.9984,239.3486,60.2585,299.9839,0,U,54020,999,19607,.15482657E-3,.61E-5,0
CENTISPACE-1 S6,2022-126B,2026-06-10T13:59:20.736960,14.62283968,.00162389,54.9988,241.2235,60.0519,300.2085,0,U,54021,999,19603,.12313732E-3,.437E-5,0
OTB-3-GAZELLE,2022-127A,2026-06-10T12:58:03.082944,14.42672047,.00125286,98.3942,153.3460,203.6473,156.4142,0,U,54023,999,19340,.53079768E-4,.133E-5,0
ASO-S,2022-129A,2026-06-10T13:40:23.834784,14.52058555,.00156545,98.2747,166.7450,111.2184,249.0685,0,U,54029,999,19446,.59619E-4,.197E-5,0
HJ-2E,2022-132A,2026-06-10T15:30:05.201856,15.22215798,.00213786,97.3798,166.1404,37.3543,322.9175,0,U,54035,999,20342,.30704142E-3,.703E-4,0
COSMOS 2561,2022-137A,2026-06-10T12:27:59.350752,15.51532978,.0011396,96.9186,220.7704,57.9604,302.2755,0,U,54109,999,20531,.21633E-3,.12746E-3,0
GONETS-M 23,2022-139A,2026-06-10T13:57:23.431680,12.42890521,.00206856,82.5072,352.4005,234.7245,125.1900,0,U,54150,999,16482,.21136847E-3,.39E-6,0
GONETS-M 24,2022-139B,2026-06-10T15:14:34.177056,12.42891153,.00158352,82.4983,351.4314,245.2419,114.7013,0,U,54151,999,16483,.24947833E-3,.44E-6,0
GONETS-M 25,2022-139C,2026-06-10T14:54:57.125664,12.42889796,.00197591,82.5054,352.1227,243.8684,116.0363,0,U,54152,999,16483,.17024715E-3,.33E-6,0
SKIF-D,2022-139D,2026-06-09T06:17:48.475104,5.00429725,.00073846,89.9519,96.6699,202.8670,157.1456,0,U,54153,999,6371,0,.13E-6,0
MATS,2022-147A,2026-06-10T14:25:40.173024,15.05318049,.00113464,97.6827,163.2267,214.7319,145.3167,0,U,54227,999,19677,.20761993E-3,.2912E-4,0
JILIN-1 GAOFEN 03D54,2022-155D,2026-06-10T15:08:59.828928,15.94416466,.00041205,97.6102,313.8851,265.4593,94.6211,0,U,54254,999,19925,.73002064E-3,.272081E-2,.30777432E-4
EOS-6 (OCEANSAT-3),2022-158A,2026-06-10T14:14:44.099808,14.46996505,.00015435,98.3539,259.8753,55.5533,304.5805,0,U,54361,999,18688,.73592903E-4,.224E-5,0
DONGPO 09,2022-167D,2026-06-10T15:15:48.765312,15.36187026,.00033896,97.6894,332.3519,130.7374,229.4164,0,U,54685,999,19444,.30082323E-3,.10526E-3,0
DONGPO 08,2022-167E,2026-06-10T14:31:12.284256,15.33512823,.00081651,97.6857,329.5287,182.4103,177.7101,0,U,54686,999,19431,.30612809E-3,.9845E-4,0
2022-167F,2022-167F,2026-06-10T02:28:58.714176,15.89700177,.00010465,97.6112,348.1595,184.5927,175.5336,0,U,54687,999,19570,.73203074E-3,.213712E-2,.18730849E-4
DONGPO 10,2022-167H,2026-06-10T14:45:45.581760,15.34318115,.00061129,97.6939,331.4752,128.5921,231.5869,0,U,54689,999,19435,.30747473E-3,.1014E-3,0
JILIN-1 GAOFEN 03D48,2022-167P,2026-06-10T14:47:09.807072,15.35078556,.0007412,97.6873,330.8520,134.5077,225.6772,0,U,54695,999,19438,.31527549E-3,.10658E-3,0
STAR VIBE,2023-001A,2026-06-10T14:50:28.165056,15.42434402,.00070037,97.3177,226.0563,130.8112,229.3744,0,U,55009,999,19121,.30667211E-3,.13193E-3,0
BRO-8,2023-001C,2026-06-10T15:39:04.980672,15.48651696,.00068841,97.3220,226.7434,141.5136,218.6607,0,U,55011,999,19119,.5442969E-3,.29095E-3,0
CONNECTA T1.2,2023-001D,2026-06-10T04:48:52.833600,15.50178440,.00068177,97.3278,231.7696,123.0964,237.0943,0,U,55012,999,19146,.68265426E-3,.38568E-3,0
